{
"type": "FeatureCollection",
"name": "roads",
"crs": { "type": "name", "properties": { "name": "urn:ogc:def:crs:OGC:1.3:CRS84" } },
"features": [
{ "type": "Feature", "properties": { "name": "Lekki Epe Expressway" }, "geometry": { "type": "LineString", "coordinates": [ [ 3.73, 6.35 ], [ 3.82, 6.41 ], [ 3.93, 6.48 ], [ 4.05, 6.55 ] ] } },
{ "type": "Feature", "properties": { "name": "Internal access road" }, "geometry": { "type": "LineString", "coordinates": [ [ 3.84, 6.44 ], [ 3.88, 6.48 ], [ 3.95, 6.54 ] ] } }
]
}
