{
"type": "FeatureCollection",
"name": "workforce_centers",
"crs": { "type": "name", "properties": { "name": "urn:ogc:def:crs:OGC:1.3:CRS84" } },
"features": [
{ "type": "Feature", "properties": { "name": "Lekki town" }, "geometry": { "type": "Point", "coordinates": [ 3.88, 6.46 ] } },
{ "type": "Feature", "properties": { "name": "Ajah" }, "geometry": { "type": "Point", "coordinates": [ 3.76, 6.5 ] } },
{ "type": "Feature", "properties": { "name": "Epe" }, "geometry": { "type": "Point", "coordinates": [ 4.03, 6.57 ] } }
]
}
